{"type": "Feature", "properties": {"name": "Aarhus", "aliases": ["Århus"], "osm": "relation/1784663", "display_name": "Aarhus Kommune, Region Midtjylland, Danmark"}, "geometry": {"type": "MultiPolygon", "coordinates": [[[[9.9485638, 56.1444462], [9.95515, 56.1406498], [9.9580893, 56.1303048], [9.9739245, 56.1279014], [9.9737087, 56.1246422], [9.9775021, 56.120977], [9.9746407, 56.1155811], [9.981852, 56.1132299], [9.9798239, 56.1111453], [9.9854257, 56.1079963], [9.992266, 56.1093909], [9.9955317, 56.1114776], [9.9962841, 56.1138297], [10.0003091, 56.1136616], [10.0083239, 56.1124244], [10.0097003, 56.1080707], [10.0188182, 56.1055796], [10.0193464, 56.101218], [10.0239756, 56.1041544], [10.0422419, 56.1043012], [10.0498193, 56.0980565], [10.0494064, 56.0967998], [10.051641, 56.0965055], [10.0504518, 56.0955718], [10.0601719, 56.0899192], [10.0597613, 56.0864437], [10.064778, 56.0842023], [10.0719369, 56.0838544], [10.0751449, 56.0815231], [10.0745867, 56.0790492], [10.0762575, 56.0772347], [10.0835375, 56.0761157], [10.0927836, 56.0707828], [10.089564, 56.064056], [10.0847712, 56.0646064], [10.0831477, 56.0585413], [10.0793235, 56.0589206], [10.079729, 56.0576767], [10.0744976, 56.055704], [10.0708999, 56.0471124], [10.0568404, 56.0454995], [10.0480344, 56.0426102], [10.0508179, 56.0397749], [10.050901, 56.0363245], [10.0589055, 56.0319038], [10.0572214, 56.0310487], [10.0585587, 56.0264452], [10.0547963, 56.021519], [10.047766, 56.0164173], [10.0479474, 56.0125724], [10.0288476, 56.009644], [10.0308686, 56.0003041], [10.0391716, 55.9996079], [10.040744, 55.9966109], [10.0444433, 55.9974299], [10.0522041, 55.9957319], [10.0642662, 56.0007219], [10.0920882, 56.004419], [10.0911037, 56.0061524], [10.0926034, 56.0092979], [10.0989101, 56.0119646], [10.1012322, 56.0078233], [10.1034426, 56.0078343], [10.1037034, 56.0100779], [10.1096312, 56.0097804], [10.1090149, 56.0064947], [10.113829, 56.0045934], [10.1271148, 56.003276], [10.1346124, 56.0043491], [10.1394751, 56.0016748], [10.145253, 56.0090646], [10.1458674, 56.0120401], [10.1507352, 56.0141322], [10.1491162, 56.0161544], [10.1505976, 56.0192986], [10.1560407, 56.0172639], [10.1575723, 56.0183548], [10.1554944, 56.0207719], [10.1560629, 56.0221981], [10.1626592, 56.015817], [10.1644631, 56.0162003], [10.1649401, 56.01933], [10.1743644, 56.0182416], [10.1820882, 56.0194455], [10.1826171, 56.0178232], [10.1906192, 56.0186683], [10.1927675, 56.0150664], [10.1945025, 56.0159057], [10.1931838, 56.019092], [10.1954545, 56.0184987], [10.1959049, 56.0137655], [10.1920994, 56.0105945], [10.1953471, 56.0060458], [10.1977403, 56.0059292], [10.2017198, 56.0065687], [10.2062394, 56.0105074], [10.2176273, 56.0117255], [10.2232492, 56.0107733], [10.2270781, 56.0122278], [10.2449876, 56.0247114], [10.2550439, 56.0264344], [10.2565972, 56.0212319], [10.2612036, 56.0224736], [10.2625203, 56.0243152], [10.266743, 56.0239913], [10.2680626, 56.0247073], [10.2666177, 56.0283077], [10.2707902, 56.0386658], [10.2712199, 56.0477385], [10.2604943, 56.0597688], [10.2579495, 56.0679553], [10.253559, 56.0744387], [10.2530889, 56.0810464], [10.2494508, 56.0836734], [10.2485353, 56.093116], [10.2392612, 56.1005013], [10.2361453, 56.1091744], [10.2298015, 56.1150453], [10.2277632, 56.1199779], [10.2159427, 56.1264001], [10.2093954, 56.135682], [10.2151897, 56.1375998], [10.2127008, 56.1374463], [10.2136665, 56.1391931], [10.2191725, 56.1391839], [10.2154301, 56.1373292], [10.2218505, 56.1398653], [10.2271975, 56.139258], [10.2549325, 56.1502528], [10.2567297, 56.1539558], [10.254533, 56.1516723], [10.2529183, 56.1520712], [10.2535419, 56.1531969], [10.2501116, 56.1518151], [10.2509201, 56.1535039], [10.2464643, 56.158064], [10.2449686, 56.1584518], [10.2460332, 56.1575446], [10.230993, 56.1490245], [10.2319547, 56.1465732], [10.2193325, 56.1416363], [10.2180954, 56.1422413], [10.2232059, 56.1463991], [10.2219173, 56.1470617], [10.2242251, 56.1502219], [10.2270831, 56.1496055], [10.2362805, 56.1553772], [10.2316489, 56.1586031], [10.2322149, 56.1594653], [10.2321833, 56.160194], [10.2313149, 56.1611138], [10.2316074, 56.1588039], [10.2259891, 56.1553496], [10.2279914, 56.1576729], [10.2263874, 56.1579789], [10.2138407, 56.1454722], [10.2163541, 56.1482123], [10.2138011, 56.1488627], [10.220581, 56.1527343], [10.2182123, 56.1524084], [10.2213214, 56.154916], [10.2227922, 56.1565156], [10.2216519, 56.1554597], [10.2220522, 56.1566348], [10.2201135, 56.1569507], [10.2147093, 56.1520477], [10.2157284, 56.153053], [10.2134069, 56.1543814], [10.2139091, 56.1583003], [10.2170578, 56.1633374], [10.2227406, 56.1671137], [10.2229944, 56.1693744], [10.224587, 56.1693047], [10.223048, 56.1697379], [10.2319256, 56.1759092], [10.2321708, 56.177861], [10.243407, 56.1874217], [10.2610872, 56.195426], [10.2807625, 56.2000395], [10.2852228, 56.2059924], [10.2910993, 56.2080158], [10.2930151, 56.2092118], [10.2875604, 56.2073763], [10.2863922, 56.2090142], [10.2894392, 56.2116594], [10.2916737, 56.2113178], [10.2920356, 56.2146114], [10.305208, 56.2254533], [10.3152162, 56.2289204], [10.3285646, 56.2308814], [10.3376335, 56.2350402], [10.3414884, 56.2418462], [10.3423931, 56.2419503], [10.343597, 56.2423604], [10.3440249, 56.2426902], [10.3442236, 56.2431341], [10.3393145, 56.2416421], [10.3385662, 56.2459954], [10.3428061, 56.2438062], [10.3434925, 56.2430144], [10.3433638, 56.2455183], [10.347593, 56.2461445], [10.3428731, 56.2484], [10.3427597, 56.2496421], [10.3481043, 56.2463255], [10.3529474, 56.2478633], [10.3463191, 56.2522069], [10.3480612, 56.2517133], [10.3470377, 56.2567351], [10.343953, 56.2603048], [10.3456602, 56.2627949], [10.3618075, 56.271995], [10.3759243, 56.2697915], [10.3890629, 56.2784285], [10.3820451, 56.285731], [10.3830033, 56.2838346], [10.3814273, 56.2856022], [10.368042, 56.2875516], [10.3344088, 56.2868957], [10.32992, 56.2912821], [10.3275908, 56.2906434], [10.3170593, 56.2934844], [10.317192, 56.2973589], [10.3068122, 56.2956498], [10.3040496, 56.2927919], [10.295912, 56.2908173], [10.2830624, 56.2894418], [10.2790362, 56.2843748], [10.2699515, 56.2810515], [10.2605523, 56.2800344], [10.2594357, 56.2848847], [10.2658592, 56.2908229], [10.266767, 56.2973141], [10.2705344, 56.2997239], [10.2687005, 56.3016142], [10.269898, 56.3045324], [10.2720231, 56.3052752], [10.2762537, 56.315629], [10.2668271, 56.317015], [10.261879, 56.3148338], [10.2569966, 56.3150326], [10.2342297, 56.3183692], [10.2339115, 56.3202895], [10.228564, 56.322957], [10.2273513, 56.3264117], [10.2233674, 56.3258168], [10.2213518, 56.3293368], [10.2186884, 56.3304745], [10.1933381, 56.3233347], [10.1921679, 56.3206445], [10.1879937, 56.3184549], [10.1916065, 56.3139472], [10.1883508, 56.3117011], [10.1885782, 56.3100838], [10.176209, 56.3047207], [10.1755182, 56.3025462], [10.1677601, 56.2984455], [10.166055, 56.2981992], [10.162286, 56.3015796], [10.1644414, 56.3044946], [10.1499582, 56.3087752], [10.1323433, 56.3055089], [10.1291348, 56.297412], [10.1273314, 56.2962892], [10.1280865, 56.2912209], [10.1253305, 56.2804981], [10.1297703, 56.2788436], [10.1353686, 56.26802], [10.1325263, 56.2618822], [10.1266607, 56.2623802], [10.1240327, 56.2491126], [10.1270519, 56.2458595], [10.1243394, 56.2398615], [10.1247384, 56.2374618], [10.1229726, 56.2365816], [10.1246807, 56.2346817], [10.122058, 56.2291197], [10.1224955, 56.224654], [10.1286255, 56.2210854], [10.1165183, 56.2159678], [10.1080716, 56.2173892], [10.1040024, 56.2204092], [10.099883, 56.2194052], [10.0835008, 56.2228706], [10.0778458, 56.2256334], [10.0774539, 56.2283527], [10.0726805, 56.2277055], [10.0736331, 56.2245316], [10.0711306, 56.2232357], [10.0688491, 56.2244254], [10.0691927, 56.2258633], [10.0664231, 56.2261766], [10.0464328, 56.2246858], [10.0430254, 56.2299406], [10.0283675, 56.2317974], [10.0299723, 56.2248934], [10.0338625, 56.2225292], [10.033682, 56.2223313], [10.030574, 56.221534], [10.0283185, 56.2217976], [10.0330269, 56.222795], [10.0223797, 56.2230797], [10.0026463, 56.2167545], [10.002889, 56.2146942], [9.9972241, 56.215459], [9.9962213, 56.2141524], [9.9999805, 56.2074245], [9.9909126, 56.2055657], [9.9920882, 56.2038562], [9.9884139, 56.2034522], [9.9892332, 56.1999014], [9.9874218, 56.1973814], [9.9879714, 56.1956737], [9.9824029, 56.1940983], [9.9865345, 56.1895559], [9.9934052, 56.1858971], [9.9940529, 56.1846628], [9.9888124, 56.1833933], [9.9905239, 56.1805714], [9.9926177, 56.1813465], [9.9968422, 56.1787172], [9.9849013, 56.178838], [9.9823664, 56.1782377], [9.9806919, 56.174837], [9.9734721, 56.1759628], [9.9642767, 56.1727718], [9.9598765, 56.1728234], [9.9594002, 56.1713805], [9.9662815, 56.1687459], [9.9650541, 56.1675156], [9.9678804, 56.1664126], [9.9745038, 56.1594242], [9.9725462, 56.152584], [9.9703676, 56.1510928], [9.9643897, 56.1520379], [9.9485638, 56.1444462]]], [[[10.2141068, 56.1582162], [10.2165511, 56.1578617], [10.2164498, 56.1602076], [10.2180661, 56.1610745], [10.2218876, 56.1592986], [10.2216632, 56.1603674], [10.2260622, 56.1614462], [10.2222433, 56.1633366], [10.2242169, 56.1644197], [10.229138, 56.1617008], [10.2266842, 56.1645504], [10.2300619, 56.1641361], [10.2260166, 56.1653979], [10.2293685, 56.1671973], [10.2256978, 56.1696344], [10.2236235, 56.1673556], [10.2244438, 56.1664703], [10.216841, 56.1628045], [10.2141068, 56.1582162]]], [[[10.2150919, 56.1387845], [10.2162321, 56.1382771], [10.2162096, 56.1386691], [10.2150919, 56.1387845]]], [[[10.216932, 56.1582601], [10.2185168, 56.1575605], [10.2202951, 56.1582915], [10.2174211, 56.1596705], [10.216932, 56.1582601]]], [[[10.2229584, 56.1476182], [10.2229191, 56.1474578], [10.2230693, 56.1475763], [10.2229584, 56.1476182]]], [[[10.225186, 56.1494732], [10.2251403, 56.1493339], [10.2252833, 56.1493926], [10.225186, 56.1494732]]], [[[10.2273409, 56.1656287], [10.2302763, 56.1642527], [10.2314232, 56.164876], [10.2285114, 56.1662459], [10.2273409, 56.1656287]]], [[[10.2281763, 56.1577894], [10.2281925, 56.1577339], [10.2282262, 56.1577654], [10.2281763, 56.1577894]]], [[[10.2284825, 56.1664829], [10.2316294, 56.1649881], [10.2325225, 56.1655919], [10.2296064, 56.1670869], [10.2284825, 56.1664829]]], [[[10.2921884, 56.2102376], [10.2924055, 56.2102007], [10.2923174, 56.2114166], [10.2921884, 56.2102376]]], [[[10.3397935, 56.2432318], [10.3413481, 56.2430928], [10.3421755, 56.2439815], [10.3411335, 56.2433611], [10.3397935, 56.2432318]]]]}}