{"type": "Feature", "properties": {"name": "Eskilstuna", "aliases": [], "osm": "relation/935569", "display_name": "Eskilstuna kommun, Södermanlands län, Sverige"}, "geometry": {"type": "MultiPolygon", "coordinates": [[[[15.8648246, 59.2842853], [15.8927381, 59.2304836], [16.0243654, 59.2630089], [16.059126, 59.2465773], [16.0640645, 59.2468097], [16.0693629, 59.2447706], [16.0740738, 59.245581], [16.0910707, 59.2201919], [16.1010276, 59.2208922], [16.0982831, 59.2167874], [16.1027186, 59.209494], [16.1021871, 59.2028384], [16.1412026, 59.2021053], [16.1415523, 59.2047238], [16.151753, 59.201943], [16.1591008, 59.2018137], [16.1781303, 59.196002], [16.1767196, 59.1975117], [16.1816173, 59.1931791], [16.1857328, 59.1865945], [16.1952502, 59.1830091], [16.2004892, 59.1712524], [16.197122, 59.169462], [16.2018792, 59.1662508], [16.2081488, 59.1669944], [16.2091635, 59.1648937], [16.2052998, 59.1595567], [16.2128799, 59.1453578], [16.2329822, 59.1566976], [16.2929718, 59.1614627], [16.3353131, 59.1607402], [16.349626, 59.1653118], [16.3813886, 59.1914071], [16.391238, 59.1933388], [16.479769, 59.1987709], [16.4765551, 59.1967879], [16.4803378, 59.1949842], [16.4838712, 59.1954363], [16.4885035, 59.1995055], [16.4976077, 59.2007486], [16.5049789, 59.1991319], [16.5952308, 59.2020249], [16.6052575, 59.2057764], [16.6063565, 59.2074863], [16.6095909, 59.2063619], [16.6156084, 59.2102969], [16.6282144, 59.2098161], [16.6622079, 59.2166239], [16.7554381, 59.2208292], [16.7460172, 59.2301417], [16.7985646, 59.2315198], [16.8154543, 59.2342631], [16.8110612, 59.2387849], [16.8217766, 59.2387896], [16.8284573, 59.2371121], [16.8401702, 59.2384779], [16.8402129, 59.2415645], [16.8371897, 59.2427144], [16.8366641, 59.2464264], [16.8410093, 59.2580843], [16.8352935, 59.2651514], [16.8366145, 59.2663414], [16.8339622, 59.2746414], [16.8351402, 59.2792914], [16.8364215, 59.2790978], [16.8351033, 59.2838993], [16.8384629, 59.285182], [16.8343001, 59.2936766], [16.8365813, 59.2943651], [16.8347484, 59.2945208], [16.8376072, 59.2971342], [16.8438441, 59.2984415], [16.8472272, 59.3010044], [16.8461394, 59.3027444], [16.822679, 59.3045924], [16.8344221, 59.3084381], [16.8334224, 59.3106698], [16.8354922, 59.3117464], [16.8321858, 59.3125757], [16.8323512, 59.3184123], [16.8359344, 59.3230238], [16.831079, 59.3239008], [16.8292367, 59.3300982], [16.8306296, 59.3390395], [16.8263149, 59.3480047], [16.8250146, 59.3566982], [16.8345364, 59.391535], [16.8192025, 59.3946526], [16.829682, 59.4043858], [16.7888732, 59.4210504], [16.7839707, 59.4273209], [16.7543556, 59.4385164], [16.7273101, 59.4533312], [16.7174571, 59.4569457], [16.7068592, 59.4643059], [16.6999659, 59.465825], [16.697767, 59.4701237], [16.7024141, 59.4877212], [16.6655755, 59.4922751], [16.6489543, 59.4858039], [16.6359709, 59.4841371], [16.4107266, 59.4597596], [16.4021347, 59.4601412], [16.3861055, 59.466702], [16.3715058, 59.4672853], [16.3227029, 59.4528804], [16.3157282, 59.4524331], [16.3005458, 59.4576027], [16.2682597, 59.4523281], [16.2542617, 59.4524573], [16.2488088, 59.4402076], [16.2484645, 59.4221926], [16.2451369, 59.4156464], [16.2496759, 59.4095405], [16.2625054, 59.4093842], [16.2907164, 59.3989825], [16.306678, 59.3993871], [16.284171, 59.3947966], [16.2802018, 59.3931907], [16.2778546, 59.3893474], [16.2736491, 59.3885323], [16.2728976, 59.3763412], [16.2705134, 59.3677501], [16.2664847, 59.361952], [16.2103271, 59.3599606], [16.2020076, 59.3581863], [16.1956891, 59.3545387], [16.1852485, 59.352038], [16.1763576, 59.3524993], [16.1750862, 59.3499582], [16.1653395, 59.3497476], [16.1576768, 59.346241], [16.1209035, 59.3500105], [16.0723227, 59.3519688], [16.0592304, 59.3581834], [16.0627868, 59.3594971], [16.0622995, 59.3604876], [16.0466369, 59.3639024], [16.0351288, 59.3692616], [16.0187045, 59.3649622], [16.0192434, 59.3637401], [15.9968261, 59.3597431], [15.9792174, 59.3531326], [15.9653089, 59.3519303], [15.9505327, 59.3475514], [15.9383221, 59.3413931], [15.9387883, 59.3299923], [15.9424698, 59.3227488], [15.9111928, 59.3156269], [15.9122482, 59.3054748], [15.9025061, 59.2963608], [15.885805, 59.2999714], [15.8805597, 59.3030939], [15.8765552, 59.2919154], [15.8787685, 59.2919591], [15.8796349, 59.2899972], [15.8764682, 59.2892134], [15.87834, 59.2836917], [15.8771153, 59.2801824], [15.8715837, 59.278309], [15.8681148, 59.2805055], [15.8731568, 59.2819843], [15.8677585, 59.2845542], [15.8700203, 59.2860747], [15.8678809, 59.2901018], [15.8648246, 59.2842853]], [[16.794264, 59.2318313], [16.7984318, 59.2323521], [16.7985052, 59.2317538], [16.7954809, 59.2317466], [16.794264, 59.2318313]], [[16.8145865, 59.2996477], [16.8207892, 59.3029459], [16.8252078, 59.2996897], [16.8304316, 59.2993389], [16.8285676, 59.2949366], [16.8192609, 59.2954765], [16.8205998, 59.2969092], [16.8145865, 59.2996477]]], [[[16.8342643, 59.3082057], [16.838781, 59.304495], [16.8412735, 59.306202], [16.8404273, 59.3079471], [16.8367339, 59.3067528], [16.8342643, 59.3082057]]], [[[16.8346142, 59.3084377], [16.8395184, 59.3097894], [16.8421103, 59.3112028], [16.8366074, 59.3106311], [16.8346142, 59.3084377]]]]}}