{"type": "Feature", "properties": {"name": "Gotland", "aliases": ["Visby"], "osm": "relation/1125739", "display_name": "Gotlands kommun, Gotlands län, Sverige"}, "geometry": {"type": "Polygon", "coordinates": [[[17.5874559, 57.2867508], [17.5890101, 57.2658791], [17.5973178, 57.2384034], [17.6122884, 57.2112558], [17.6333829, 57.1858767], [17.6541237, 57.1673789], [17.6858404, 57.1455125], [17.7228074, 57.1262468], [17.7640511, 57.1100427], [17.7835045, 57.0501197], [17.7586546, 56.9358326], [17.757711, 56.9072416], [17.7627739, 56.8793546], [17.7764978, 56.8466432], [17.7897124, 56.8270495], [17.8005602, 56.8144523], [17.8197515, 56.7964095], [17.8344014, 56.7850336], [17.8678264, 56.764094], [17.9032826, 56.7470354], [17.9344895, 56.7351063], [17.9677766, 56.7250261], [18.014766, 56.714647], [18.0764191, 56.7068629], [18.1668502, 56.7017017], [18.2048189, 56.7013395], [18.2551615, 56.7042358], [18.292178, 56.7089124], [18.3281141, 56.715681], [18.3726286, 56.7275043], [18.4267339, 56.7379454], [18.4609408, 56.7470606], [18.4932439, 56.7580819], [18.5437704, 56.7811372], [18.622851, 56.8268307], [18.6913238, 56.8730161], [18.9933047, 57.1033645], [19.2844068, 57.3123277], [19.3118793, 57.3358718], [19.3330561, 57.3612501], [19.3492029, 57.3892747], [19.3574195, 57.4139211], [19.3608692, 57.4409288], [19.3584434, 57.468738], [19.3488464, 57.4960953], [19.3322548, 57.5224645], [19.3079334, 57.5483947], [19.2840136, 57.5674107], [19.6644373, 57.8498384], [19.6841896, 57.8678772], [19.700315, 57.8869151], [19.7126316, 57.9067452], [19.7209972, 57.9271524], [19.7245794, 57.9422637], [19.7261656, 57.9631327], [19.7247638, 57.9804868], [19.7204787, 57.9983251], [19.7215696, 58.0160965], [19.7203396, 58.0300096], [19.7124096, 58.0575277], [19.6973114, 58.0841919], [19.6814509, 58.1033141], [19.6688047, 58.1155275], [19.6545702, 58.1272433], [19.6303919, 58.1437567], [19.5832347, 58.1680128], [19.532562, 58.1864146], [19.5551337, 58.1969623], [19.5822344, 58.212179], [19.634012, 58.2494471], [19.6614303, 58.2732398], [19.6823307, 58.2988085], [19.6902002, 58.312105], [19.6983783, 58.3308902], [19.7042039, 58.3585582], [19.7037307, 58.3794418], [19.7011053, 58.3933001], [19.69036, 58.4205596], [19.6822904, 58.4338279], [19.6669141, 58.4530938], [19.6405733, 58.4772672], [19.6080281, 58.4992776], [19.5476889, 58.5300527], [19.5064339, 58.5476459], [19.4608596, 58.5620501], [19.3828172, 58.5790822], [19.3448036, 58.5855685], [19.2559956, 58.5943402], [19.2041299, 58.5972904], [19.1508404, 58.5972891], [19.0944619, 58.5930311], [19.0432379, 58.5853171], [18.9945977, 58.5739357], [18.9495002, 58.5591144], [18.8994526, 58.5361993], [18.8733855, 58.5203789], [18.8506463, 58.5032157], [18.83148, 58.4849001], [18.8118354, 58.4590361], [18.8017338, 58.4388338], [18.7952906, 58.4157354], [18.7938743, 58.3886345], [18.7975632, 58.3678399], [18.8053624, 58.3473606], [18.8178527, 58.3262299], [18.8484475, 58.2872212], [18.8638791, 58.2631381], [18.8808072, 58.2442543], [18.9013678, 58.226405], [18.9253297, 58.2097816], [18.95243, 58.1945656], [18.9887236, 58.1783825], [18.615331, 58.1223426], [18.5759022, 58.1146981], [18.5304179, 58.1029154], [18.4965961, 58.0925204], [18.4681002, 58.081747], [18.4260742, 58.0612989], [18.3759108, 58.03956], [18.3261498, 58.0102088], [18.2936788, 58.0009124], [18.237037, 57.9810865], [18.2070137, 57.9676031], [18.1759799, 57.9502725], [18.1422689, 57.9264971], [18.1152999, 57.9019496], [18.078573, 57.8572683], [18.0572507, 57.8241777], [18.0397791, 57.8082698], [18.0153556, 57.7824824], [17.983795, 57.7629941], [17.9557822, 57.7511035], [17.9159513, 57.7312509], [17.8806206, 57.7108148], [17.8290293, 57.6748528], [17.7878395, 57.639386], [17.77037, 57.6217412], [17.7511849, 57.595876], [17.7386908, 57.5683786], [17.7304006, 57.528769], [17.7207951, 57.5089876], [17.7149327, 57.4883395], [17.7131158, 57.4674747], [17.7146715, 57.4502687], [17.7119275, 57.4396449], [17.6807147, 57.4224665], [17.6583955, 57.4073437], [17.6374704, 57.389774], [17.6200797, 57.3711164], [17.6064104, 57.351578], [17.5955717, 57.3287778], [17.5897369, 57.3081294], [17.5874559, 57.2867508]]]}}