{"type": "Feature", "properties": {"name": "Lund", "aliases": [], "osm": "relation/2468628", "display_name": "Lund, Lunds kommun, Skåne län, Sverige"}, "geometry": {"type": "Polygon", "coordinates": [[[13.140177, 55.7039886], [13.1560937, 55.6977078], [13.1570868, 55.6949613], [13.1613541, 55.6918993], [13.1703249, 55.68805], [13.1676667, 55.6814462], [13.1825005, 55.6780929], [13.1914478, 55.6829762], [13.2125198, 55.6813176], [13.2159926, 55.6868214], [13.2241266, 55.6846811], [13.2561609, 55.6873536], [13.2617667, 55.6994861], [13.2554003, 55.7013477], [13.2426369, 55.7185397], [13.263408, 55.726505], [13.2597917, 55.734585], [13.2517301, 55.7412932], [13.2302306, 55.7281854], [13.2275205, 55.7296705], [13.223316, 55.7291603], [13.2206887, 55.73188], [13.213843, 55.7319166], [13.2137344, 55.7299412], [13.2025878, 55.732467], [13.1836683, 55.7304757], [13.1868512, 55.7342876], [13.164305, 55.7332614], [13.1481577, 55.7287715], [13.1508611, 55.7199812], [13.1490414, 55.7114085], [13.1465115, 55.7079364], [13.140177, 55.7039886]]]}}