{"type": "Feature", "properties": {"name": "Malmö", "aliases": [], "osm": "relation/10663667", "display_name": "Malmö, Malmö kommun, Skåne län, Sverige"}, "geometry": {"type": "Polygon", "coordinates": [[[12.9097653, 55.5826004], [12.9144143, 55.5849521], [12.9184825, 55.5838876], [12.9154769, 55.5818357], [12.9113497, 55.582629], [12.9182446, 55.581024], [12.9133977, 55.5775824], [12.9146898, 55.5774315], [12.9109073, 55.57214], [12.9110724, 55.5698974], [12.9144037, 55.5677295], [12.9217672, 55.5671354], [12.9221546, 55.5701588], [12.9261016, 55.5717214], [12.9443522, 55.5702301], [12.9428631, 55.5633332], [12.9578523, 55.5507004], [12.9813765, 55.5479606], [13.0551052, 55.5506553], [13.0648469, 55.553277], [13.0744171, 55.5589569], [13.080554, 55.5682031], [13.0704259, 55.5709935], [13.08609, 55.5754335], [13.0863046, 55.5826626], [13.087635, 55.5840937], [13.1112814, 55.5854277], [13.1123113, 55.5904481], [13.0992651, 55.5906907], [13.1046218, 55.5951073], [13.1109529, 55.5962824], [13.1117041, 55.6004497], [13.1170106, 55.6034933], [13.1295052, 55.618595], [13.0861115, 55.6204965], [13.0827861, 55.6219614], [13.0796539, 55.6211326], [13.0772585, 55.6139857], [13.0706505, 55.6117852], [13.0674169, 55.6134786], [13.0621913, 55.620101], [13.0620345, 55.6223438], [13.0951881, 55.6370079], [13.0927883, 55.6503655], [13.0813344, 55.6478862], [13.0792743, 55.649136], [13.0639986, 55.6435657], [13.0577013, 55.6388701], [13.0550952, 55.6307246], [13.0520811, 55.6284106], [13.0472609, 55.6292007], [13.0470401, 55.6323407], [13.0398746, 55.6378173], [13.0353834, 55.6364481], [13.0289289, 55.638725], [13.0217964, 55.6382455], [13.0222856, 55.6365935], [13.0280061, 55.6373476], [13.0266097, 55.6367042], [13.0284041, 55.6359323], [13.014724, 55.6344957], [13.0129644, 55.6391562], [12.9985592, 55.6377613], [12.9905855, 55.6335754], [12.9908258, 55.6292098], [12.988911, 55.628426], [12.9919131, 55.626455], [12.9904277, 55.6244664], [13.0182283, 55.6264114], [13.0196079, 55.6247991], [13.0206005, 55.6255901], [13.0183657, 55.626727], [13.0216219, 55.6269178], [13.0218794, 55.6246063], [13.036771, 55.624868], [13.035166, 55.6240538], [13.0371143, 55.6236031], [13.0237419, 55.6224207], [13.0247972, 55.6160885], [13.0229008, 55.6159502], [13.0216734, 55.6212672], [13.0187659, 55.6242461], [12.9913493, 55.6226306], [12.9950585, 55.6191329], [13.0077064, 55.6166414], [13.0054687, 55.615583], [12.994558, 55.6175877], [12.994091, 55.6164384], [13.0033742, 55.6145412], [12.9996663, 55.6133002], [12.995507, 55.6146687], [12.9968778, 55.6122736], [12.9957265, 55.6121873], [12.9919167, 55.6142067], [12.9890552, 55.6190541], [12.9873472, 55.6186156], [12.9885739, 55.6187544], [12.9903087, 55.6147937], [12.9891843, 55.614624], [12.9878552, 55.618281], [12.9850558, 55.6185114], [12.9841071, 55.6209812], [12.9773654, 55.6198055], [12.9708222, 55.6149937], [12.9721126, 55.6072554], [12.9695548, 55.6046857], [12.951152, 55.5985339], [12.933286, 55.5964552], [12.9378138, 55.5983609], [12.9345961, 55.5981974], [12.9298135, 55.5947628], [12.931081, 55.5937604], [12.9264133, 55.5887832], [12.9234342, 55.5891745], [12.9298395, 55.5979447], [12.9276748, 55.59543], [12.9211443, 55.5932149], [12.9157484, 55.5872824], [12.9191602, 55.5864579], [12.9228342, 55.5887436], [12.9264904, 55.5866503], [12.9229623, 55.5868914], [12.9243447, 55.5857021], [12.9220296, 55.5870444], [12.9217964, 55.5858942], [12.9134113, 55.5849571], [12.9097653, 55.5826004]]]}}