{"type": "Feature", "properties": {"name": "Munich", "aliases": ["München"], "osm": "relation/62428", "display_name": "München, Bayern, Deutschland"}, "geometry": {"type": "MultiPolygon", "coordinates": [[[[11.360777, 48.1580704], [11.3711951, 48.1584195], [11.3698222, 48.15683], [11.3749147, 48.155983], [11.3739109, 48.1535523], [11.3828857, 48.1530762], [11.3831771, 48.1496722], [11.3855294, 48.1496533], [11.3872366, 48.1473301], [11.389144, 48.1479327], [11.3912725, 48.1418913], [11.3895295, 48.1412227], [11.3921849, 48.1366638], [11.3881907, 48.1345772], [11.388724, 48.1297424], [11.3896186, 48.1278656], [11.3930053, 48.1285263], [11.3944236, 48.1255105], [11.4022722, 48.1251677], [11.4128816, 48.127491], [11.4226466, 48.1324989], [11.4262618, 48.136538], [11.4299801, 48.1375559], [11.4363741, 48.1366581], [11.4381326, 48.1346137], [11.4474667, 48.1335873], [11.4481179, 48.1311538], [11.4497754, 48.1329213], [11.4533677, 48.1331361], [11.4636931, 48.129926], [11.4656651, 48.1185145], [11.4650608, 48.1147058], [11.4633954, 48.1145011], [11.4629691, 48.1052549], [11.4748504, 48.1046058], [11.470851, 48.0993754], [11.4741079, 48.0953762], [11.4720742, 48.0901146], [11.476342, 48.0887657], [11.4709217, 48.0831868], [11.4729244, 48.0812229], [11.4733659, 48.0821506], [11.4870344, 48.0763511], [11.4857966, 48.0742165], [11.488005, 48.074964], [11.4872351, 48.0762576], [11.503558, 48.0692942], [11.5025769, 48.0669437], [11.5042105, 48.0623947], [11.5087578, 48.0616244], [11.5115038, 48.0643994], [11.5156035, 48.0633629], [11.5188177, 48.0673262], [11.5229583, 48.0664605], [11.5238869, 48.0683743], [11.5282499, 48.0689844], [11.5334768, 48.0776817], [11.5423719, 48.0778567], [11.5417552, 48.0745914], [11.5436028, 48.0735282], [11.5440667, 48.0683123], [11.5454241, 48.0681278], [11.5499136, 48.0746572], [11.5539743, 48.0850231], [11.5624875, 48.0836047], [11.5629144, 48.0851799], [11.5869189, 48.0938795], [11.588558, 48.0934318], [11.5926218, 48.0850713], [11.6017741, 48.0873456], [11.6035253, 48.0850642], [11.6064974, 48.086808], [11.6119796, 48.0870427], [11.6116855, 48.0881107], [11.6237531, 48.08811], [11.633041, 48.0859672], [11.6330367, 48.0842769], [11.6655716, 48.0782116], [11.685651, 48.0774915], [11.6809575, 48.0838042], [11.6827716, 48.0918035], [11.6887349, 48.0922119], [11.6871126, 48.0935434], [11.6888833, 48.0949278], [11.7093428, 48.1025744], [11.7127047, 48.1048692], [11.7145946, 48.1108471], [11.708916, 48.1142371], [11.710668, 48.1155572], [11.6940418, 48.1193471], [11.6975662, 48.12118], [11.6941881, 48.1231033], [11.6977398, 48.1253464], [11.7042695, 48.1214437], [11.7107359, 48.1240348], [11.7119885, 48.1229767], [11.7161672, 48.1281741], [11.7117067, 48.1300689], [11.7143702, 48.1313657], [11.7122674, 48.1333845], [11.7204373, 48.134335], [11.7196799, 48.1355406], [11.7229099, 48.137117], [11.720463, 48.1390675], [11.7179981, 48.1377062], [11.7141843, 48.1386774], [11.7101299, 48.141854], [11.7127796, 48.1431936], [11.7109481, 48.1446123], [11.7134632, 48.1455237], [11.710117, 48.14818], [11.6781624, 48.144285], [11.6798009, 48.1532533], [11.673925, 48.15647], [11.6856558, 48.1674893], [11.6867422, 48.1697065], [11.6857938, 48.1717565], [11.6932605, 48.1705663], [11.6960995, 48.1742858], [11.6907035, 48.1781596], [11.6955543, 48.1799813], [11.6919782, 48.1825288], [11.6889679, 48.1827884], [11.6868297, 48.180373], [11.6622045, 48.1828884], [11.6610541, 48.1797005], [11.6655252, 48.1761816], [11.6458544, 48.1736881], [11.6375913, 48.1742731], [11.6358903, 48.174917], [11.6372115, 48.1764448], [11.6314002, 48.1778753], [11.627706, 48.1773044], [11.6315335, 48.1830639], [11.6292562, 48.1843291], [11.6377992, 48.1978661], [11.6391181, 48.2037657], [11.6480642, 48.2097556], [11.6504917, 48.2133803], [11.6505051, 48.2170076], [11.6391535, 48.221753], [11.6389922, 48.2259624], [11.624613, 48.2292444], [11.6223607, 48.2287395], [11.6224909, 48.2275567], [11.6141709, 48.2279305], [11.6129485, 48.2255761], [11.609395, 48.2255504], [11.6075414, 48.2273], [11.6088775, 48.228416], [11.6070763, 48.2281597], [11.6057154, 48.2267704], [11.6115803, 48.2191392], [11.6061897, 48.2191897], [11.6018313, 48.2168632], [11.6018342, 48.2133525], [11.5874666, 48.2134767], [11.587159, 48.2240011], [11.5823007, 48.2285636], [11.5468314, 48.227114], [11.5442711, 48.229276], [11.5311184, 48.2313437], [11.5253855, 48.2413177], [11.5011968, 48.2481162], [11.4906903, 48.2454237], [11.4919203, 48.2397346], [11.4895372, 48.2379692], [11.4900386, 48.234826], [11.4877521, 48.2320807], [11.4888895, 48.2234665], [11.4910806, 48.2230962], [11.4702641, 48.2184986], [11.4617916, 48.214465], [11.4576008, 48.2087996], [11.4188322, 48.2027723], [11.3908298, 48.2004624], [11.3885404, 48.1908446], [11.3922842, 48.1895554], [11.3912683, 48.1855524], [11.3932585, 48.1844601], [11.3853011, 48.177571], [11.3810841, 48.1793421], [11.3711004, 48.1782815], [11.369049, 48.1764125], [11.3678431, 48.1684747], [11.3654224, 48.1643455], [11.36277, 48.163048], [11.360777, 48.1580704]]], [[[11.490724, 48.0742575], [11.4903024, 48.0737742], [11.4909805, 48.0741023], [11.490724, 48.0742575]]], [[[11.5563954, 48.0804318], [11.5569527, 48.0793801], [11.5577562, 48.0795803], [11.5563954, 48.0804318]]]]}}