{"type": "Feature", "properties": {"name": "Örebro", "aliases": [], "osm": "relation/935628", "display_name": "Örebro kommun, Örebro län, Sverige"}, "geometry": {"type": "MultiPolygon", "coordinates": [[[[14.7606421, 59.3847791], [14.7629266, 59.3801932], [14.7614312, 59.3796952], [14.7641237, 59.3641317], [14.7718082, 59.3536287], [14.7774767, 59.3538492], [14.7825463, 59.3499094], [14.7808974, 59.3435325], [14.787931, 59.3363743], [14.7878246, 59.3340127], [14.7957533, 59.3277524], [14.7999427, 59.320746], [14.8024675, 59.3208723], [14.8036471, 59.3225864], [14.8088694, 59.3223374], [14.8175721, 59.3170633], [14.8354823, 59.3112367], [14.8377282, 59.3112706], [14.8398039, 59.3138975], [14.8492092, 59.3133589], [14.8657849, 59.3019549], [14.8739425, 59.298508], [14.8811928, 59.2997839], [14.8924317, 59.2943635], [14.9008708, 59.2821779], [14.9006362, 59.2753737], [14.9027854, 59.273123], [14.9122049, 59.2742243], [14.9133574, 59.2711766], [14.9195117, 59.2697843], [14.919082, 59.2672266], [14.9237417, 59.2595219], [14.9279348, 59.2577393], [14.9264937, 59.2520394], [14.9286996, 59.2508377], [14.9289842, 59.2457704], [14.9325234, 59.245395], [14.933567, 59.243437], [14.9271192, 59.2421926], [14.9257112, 59.2381687], [14.9309708, 59.2384964], [14.9320952, 59.2373757], [14.9302742, 59.2364807], [14.9480394, 59.2277401], [14.9460084, 59.2272394], [14.9529283, 59.2152681], [14.9479807, 59.214224], [14.9436164, 59.2110105], [14.9437688, 59.2095003], [14.9333612, 59.2053264], [14.9282967, 59.2052866], [14.9468678, 59.1897687], [14.9522515, 59.1896997], [14.9575808, 59.1930359], [14.9891001, 59.1949953], [14.9891326, 59.1989461], [15.0018084, 59.1990226], [15.0018296, 59.2003103], [15.0226187, 59.1991194], [15.0285217, 59.1975008], [15.0253433, 59.1951316], [15.0397786, 59.187988], [15.043609, 59.1732482], [15.048281, 59.1664682], [15.0545203, 59.1697311], [15.0538025, 59.1725759], [15.0552095, 59.1733104], [15.0668837, 59.1715176], [15.0843629, 59.1749864], [15.09674, 59.1805851], [15.1117918, 59.1767294], [15.1333454, 59.1766], [15.1446014, 59.1793976], [15.1447612, 59.1810372], [15.157758, 59.1821522], [15.1580574, 59.1784841], [15.1526428, 59.1781363], [15.1426044, 59.1704366], [15.1562208, 59.1697213], [15.1606975, 59.1704956], [15.183714, 59.1820988], [15.2002269, 59.1821592], [15.2032421, 59.1799243], [15.2046992, 59.1805524], [15.2296162, 59.1716391], [15.2378368, 59.1753834], [15.2522251, 59.1778855], [15.2612106, 59.1824739], [15.277341, 59.185472], [15.2791857, 59.1885799], [15.2817738, 59.1891287], [15.2916762, 59.1870573], [15.2958071, 59.1882713], [15.3016681, 59.1871099], [15.302347, 59.1845591], [15.3083657, 59.1811441], [15.3175586, 59.1807463], [15.3227934, 59.1819052], [15.3255031, 59.1843709], [15.3565954, 59.1833328], [15.3614693, 59.1717766], [15.3727708, 59.1543628], [15.379042, 59.1545992], [15.3941096, 59.1475082], [15.402015, 59.1476145], [15.40513, 59.1461681], [15.4064336, 59.1390104], [15.403442, 59.1379565], [15.4067005, 59.1337785], [15.4053932, 59.1274696], [15.4181546, 59.1116296], [15.4217869, 59.1126795], [15.4261547, 59.1091042], [15.4260236, 59.1059057], [15.4225006, 59.1059337], [15.4228804, 59.1047971], [15.4500042, 59.0935861], [15.4522304, 59.0894701], [15.4671564, 59.0800825], [15.4607315, 59.0739401], [15.4686113, 59.0668025], [15.4671276, 59.0638212], [15.4591315, 59.0609069], [15.4625813, 59.0418175], [15.4709513, 59.0353964], [15.4710028, 59.0295498], [15.463985, 59.0184769], [15.4360253, 59.0169816], [15.4368337, 59.0142386], [15.440938, 59.0135679], [15.4603236, 59.0017291], [15.4756089, 59.0019386], [15.4793184, 58.9980153], [15.4901699, 58.9919323], [15.5433604, 58.9731718], [15.5512402, 58.9635274], [15.553561, 58.9561915], [15.5903472, 58.9595495], [15.6290804, 58.9831773], [15.6415794, 58.9739172], [15.681871, 58.975251], [15.6876337, 58.9819685], [15.665314, 58.9820286], [15.6503085, 58.9961365], [15.6544942, 58.9997076], [15.6546025, 59.0045634], [15.6516539, 59.0086685], [15.6559937, 59.0101397], [15.6557239, 59.0115483], [15.6434149, 59.0128707], [15.6311221, 59.0112832], [15.6211904, 59.0156749], [15.6197937, 59.0185547], [15.6206616, 59.0200716], [15.6166717, 59.0225821], [15.6200279, 59.0246747], [15.6282793, 59.0245081], [15.6296827, 59.0281906], [15.6328658, 59.0294952], [15.6334028, 59.0312649], [15.6394962, 59.0326041], [15.6409816, 59.0345289], [15.6334795, 59.0353281], [15.6322876, 59.0367929], [15.638328, 59.0432154], [15.6365651, 59.0471264], [15.6425639, 59.0492215], [15.6399065, 59.054114], [15.6719066, 59.0641429], [15.6841271, 59.0651852], [15.7012117, 59.0724724], [15.703561, 59.0765217], [15.7105116, 59.0774186], [15.7161218, 59.0849006], [15.7125819, 59.0880406], [15.7077865, 59.0886995], [15.7010778, 59.09445], [15.7072654, 59.1010137], [15.7171207, 59.10174], [15.7293245, 59.1054236], [15.7334352, 59.1031352], [15.7352599, 59.1058239], [15.7598947, 59.1049444], [15.7703727, 59.1064282], [15.776627, 59.1043629], [15.7942522, 59.1097091], [15.7899479, 59.1130332], [15.7895, 59.1153129], [15.7923366, 59.1168822], [15.7908438, 59.1213685], [15.7975953, 59.1228774], [15.7878565, 59.1334569], [15.7877279, 59.1366272], [15.7982094, 59.1369832], [15.7690883, 59.1837226], [15.7620367, 59.1979186], [15.7981743, 59.2305249], [15.7265391, 59.2233956], [15.6916752, 59.2705253], [15.6525742, 59.2770313], [15.6076998, 59.2887305], [15.6317907, 59.3165527], [15.6310302, 59.3202076], [15.6347741, 59.3221131], [15.6353152, 59.3339546], [15.6145166, 59.3476943], [15.6192292, 59.3525519], [15.6160481, 59.3579666], [15.6130583, 59.3597693], [15.6125739, 59.363306], [15.5999559, 59.3668249], [15.5995795, 59.3683695], [15.6040817, 59.3702458], [15.5993835, 59.3732228], [15.5998844, 59.3749381], [15.5829144, 59.3696588], [15.5681967, 59.3683094], [15.5648986, 59.3692045], [15.5639593, 59.3723444], [15.5611379, 59.3739256], [15.5378054, 59.3756286], [15.5183892, 59.3851576], [15.4989069, 59.3866611], [15.4890444, 59.3891146], [15.4760303, 59.3890731], [15.4737225, 59.3977867], [15.5159973, 59.4062874], [15.5014521, 59.4186926], [15.4863851, 59.4208095], [15.472891, 59.4320347], [15.4635687, 59.4335882], [15.4615066, 59.4326621], [15.4634628, 59.4296614], [15.4601988, 59.4312011], [15.4576937, 59.4305906], [15.4593482, 59.4264494], [15.4486022, 59.4277655], [15.4381458, 59.426874], [15.4263999, 59.4247711], [15.4198712, 59.4214751], [15.4065427, 59.4236861], [15.3928503, 59.4311507], [15.3637657, 59.4283859], [15.3192555, 59.4328444], [15.3178515, 59.4351029], [15.3189564, 59.4380934], [15.3011396, 59.4498576], [15.2950473, 59.4465928], [15.2914292, 59.4486345], [15.2798025, 59.4457813], [15.2727664, 59.4852591], [15.2787745, 59.5015876], [15.2756533, 59.5053718], [15.2314777, 59.5080055], [15.2290523, 59.5181085], [15.2302063, 59.520451], [15.2221155, 59.5193293], [15.221747, 59.5156363], [15.2145312, 59.514958], [15.2008217, 59.5237335], [15.1765987, 59.5172907], [15.1750769, 59.5141695], [15.1685371, 59.5107169], [15.1637429, 59.5108134], [15.1648595, 59.5083212], [15.1590134, 59.5065549], [15.1486765, 59.5085633], [15.1466657, 59.5050332], [15.1521014, 59.5019499], [15.1493291, 59.5007537], [15.1502124, 59.4991033], [15.1483648, 59.4950164], [15.1516721, 59.4934168], [15.1495111, 59.4891293], [15.1472893, 59.489515], [15.150823, 59.4868888], [15.1487515, 59.4857713], [15.149685, 59.4840927], [15.1476467, 59.4825787], [15.1489946, 59.4812273], [15.1449041, 59.4761199], [15.1475675, 59.473679], [15.1439789, 59.4723287], [15.1469059, 59.4699025], [15.1421291, 59.4676192], [15.1447586, 59.4664038], [15.1448854, 59.4623437], [15.149076, 59.4625727], [15.1450372, 59.4591724], [15.1491782, 59.4559526], [15.14861, 59.4543814], [15.150303, 59.4532178], [15.1485414, 59.4492291], [15.150951, 59.4463882], [15.1452524, 59.4457672], [15.1431436, 59.4437641], [15.1351666, 59.44502], [15.1136821, 59.441993], [15.1077739, 59.4393946], [15.1097095, 59.4375955], [15.1080922, 59.4347658], [15.0886829, 59.431607], [15.075529, 59.4336547], [15.0690014, 59.4324606], [15.0729836, 59.4462057], [15.0734326, 59.4535432], [15.0661399, 59.4662765], [15.0658378, 59.4692995], [15.0412211, 59.4727717], [15.0037034, 59.4644612], [15.0001298, 59.4583182], [14.9941841, 59.452521], [14.9995144, 59.4516251], [14.9962401, 59.4347709], [14.9985452, 59.4289433], [14.9975247, 59.4244063], [14.9989386, 59.4223245], [14.9893374, 59.4217201], [14.9741753, 59.4162443], [14.9791052, 59.4120207], [14.9604853, 59.4142554], [14.9392981, 59.3988683], [14.9311328, 59.3833107], [14.8955529, 59.3765133], [14.8323992, 59.3728073], [14.7909593, 59.3869755], [14.7649291, 59.3860982], [14.7606421, 59.3847791]], [[15.0021564, 59.20122], [15.0037172, 59.2020987], [15.0049227, 59.2013184], [15.004394, 59.2007254], [15.0021564, 59.20122]], [[15.0040575, 59.2024493], [15.0172877, 59.2116755], [15.019117, 59.2097354], [15.0171814, 59.2032728], [15.0211065, 59.1998065], [15.0040575, 59.2024493]], [[15.2496834, 59.4193215], [15.2517138, 59.4226834], [15.2516131, 59.4214308], [15.2546009, 59.4203577], [15.2496834, 59.4193215]], [[15.2693035, 59.4309598], [15.2726842, 59.4329316], [15.2732402, 59.4327341], [15.2707292, 59.4302805], [15.2693035, 59.4309598]]], [[[14.8392548, 59.3000207], [14.8412674, 59.298905], [14.841477, 59.2932327], [14.8533252, 59.2860689], [14.860494, 59.2925791], [14.8430861, 59.3011699], [14.8392548, 59.3000207]]]]}}