{"type": "Feature", "properties": {"name": "Stockholm", "aliases": [], "osm": "relation/398021", "display_name": "Stockholms kommun, Stockholms län, Sverige"}, "geometry": {"type": "Polygon", "coordinates": [[[17.7606914, 59.3917673], [17.7622066, 59.3888127], [17.773249, 59.3846147], [17.7880422, 59.370855], [17.7873795, 59.3671397], [17.7962864, 59.3551189], [17.8162086, 59.3581764], [17.8298588, 59.3508916], [17.8393951, 59.3525313], [17.8701277, 59.3393469], [17.8863029, 59.3340579], [17.8960809, 59.3331683], [17.9068153, 59.3277921], [17.9412552, 59.3176297], [17.9548266, 59.3107005], [17.9474736, 59.3063671], [17.909407, 59.2993346], [17.9050756, 59.2959657], [17.893221, 59.2931513], [17.8862294, 59.2871469], [17.8653014, 59.2862217], [17.8679784, 59.2795736], [17.8634922, 59.2745437], [17.8721452, 59.2732018], [17.8753089, 59.2690298], [17.8779033, 59.2681128], [17.8816301, 59.2702144], [17.8873334, 59.2702152], [17.8877802, 59.2689221], [17.892363, 59.268923], [17.8938674, 59.2673177], [17.9069992, 59.2686783], [17.9114016, 59.2720854], [17.9152808, 59.2789604], [17.9479721, 59.2877532], [17.946686, 59.2864154], [17.9499717, 59.2861191], [17.9493768, 59.2850927], [17.9561369, 59.2822504], [17.9568758, 59.2797417], [17.955273, 59.2742957], [17.9634326, 59.2684586], [17.9803195, 59.26257], [18.0181331, 59.2553889], [18.028138, 59.2498562], [18.0500006, 59.2449024], [18.0522256, 59.2467219], [18.0631271, 59.2406265], [18.0612011, 59.2381603], [18.0653057, 59.2394143], [18.073742, 59.2338918], [18.1080251, 59.2272524], [18.1081327, 59.2296019], [18.1235294, 59.2341693], [18.1219086, 59.2381686], [18.1236911, 59.2410755], [18.1273552, 59.2403034], [18.1336742, 59.2424013], [18.1468049, 59.2386073], [18.1937163, 59.2297855], [18.1966531, 59.2450501], [18.2000781, 59.2474732], [18.1806998, 59.2462718], [18.1747787, 59.2511809], [18.1707408, 59.2520529], [18.1703412, 59.2626987], [18.1497274, 59.2657543], [18.1496763, 59.2695322], [18.15207, 59.2737862], [18.1429523, 59.2796353], [18.1233056, 59.2883682], [18.119346, 59.2938288], [18.130138, 59.3012662], [18.1106092, 59.3019621], [18.114224, 59.3041031], [18.1130902, 59.3089173], [18.1054016, 59.3137197], [18.1085907, 59.315107], [18.1093278, 59.3176801], [18.1385727, 59.3202328], [18.1492465, 59.3186593], [18.1603166, 59.3208432], [18.163893, 59.3253325], [18.1603563, 59.3282256], [18.1605563, 59.334597], [18.1381377, 59.3443307], [18.1261711, 59.3476576], [18.1112023, 59.360053], [18.0954841, 59.3697415], [18.0779841, 59.3718494], [18.0711109, 59.3747793], [18.0485615, 59.3758007], [18.043765, 59.3750113], [18.0430556, 59.3722268], [18.0363903, 59.3714152], [18.0435773, 59.3655349], [18.0490057, 59.3568391], [18.0450425, 59.3543992], [18.0432939, 59.3501824], [18.0407082, 59.3511312], [18.0302946, 59.3479671], [18.0253514, 59.3443859], [18.0247724, 59.3393646], [18.0048311, 59.3418014], [17.9982384, 59.340746], [17.9814557, 59.3450362], [17.966495, 59.3538397], [17.9599803, 59.3612682], [17.9513494, 59.366153], [17.9276701, 59.3746312], [17.9291552, 59.378141], [17.9346442, 59.3805544], [17.9405258, 59.3873307], [17.9469576, 59.3898593], [17.9548763, 59.3979348], [17.9653001, 59.3993266], [17.9690996, 59.4015022], [17.9761514, 59.3995271], [17.9528876, 59.4104291], [17.9241661, 59.4202918], [17.9150883, 59.4268747], [17.9198021, 59.43393], [17.9105683, 59.437282], [17.904396, 59.4376179], [17.9028384, 59.4400861], [17.8987458, 59.4400566], [17.8936498, 59.4369355], [17.8884492, 59.4301965], [17.8938384, 59.4266235], [17.8911853, 59.4254168], [17.8919113, 59.4236723], [17.894537, 59.4226864], [17.8988995, 59.4157202], [17.8960142, 59.4115661], [17.8880219, 59.4061538], [17.8719126, 59.4020377], [17.8774899, 59.3985113], [17.8721402, 59.3955946], [17.8693742, 59.3964192], [17.8674265, 59.3933988], [17.8613823, 59.3897439], [17.8552132, 59.3891771], [17.8397412, 59.381283], [17.8249077, 59.381712], [17.8272549, 59.3915078], [17.8171541, 59.3991755], [17.7986881, 59.390507], [17.7794706, 59.3984294], [17.7606914, 59.3917673]]]}}