{"type": "Feature", "properties": {"name": "Uppsala", "aliases": [], "osm": "relation/305455", "display_name": "Uppsala kommun, Uppsala län, Sverige"}, "geometry": {"type": "MultiPolygon", "coordinates": [[[[17.1416421, 60.000164], [17.1453985, 60.001811], [17.1444072, 60.0030298], [17.1485166, 60.0064418], [17.146342, 60.0088765], [17.1349222, 60.0114844], [17.1335383, 60.0086297], [17.1379413, 60.0071879], [17.1397654, 60.0036585], [17.1354886, 60.0020413], [17.1416421, 60.000164]]], [[[17.1416421, 60.000164], [17.1079332, 59.9971167], [17.0846021, 59.9906364], [17.0855083, 59.9836336], [17.0839665, 59.9779704], [17.0798532, 59.9722294], [17.1132397, 59.9692432], [17.1244246, 59.9710972], [17.127722, 59.9667457], [17.1330757, 59.9541402], [17.1292042, 59.9459271], [17.1274565, 59.9245421], [17.1254436, 59.9249308], [17.1236502, 59.9192387], [17.1270471, 59.9185846], [17.126482, 59.9061869], [17.1240593, 59.8998154], [17.127857, 59.8879138], [17.1184456, 59.8885395], [17.1187478, 59.8824671], [17.1249769, 59.8826031], [17.1247832, 59.8811246], [17.1288934, 59.8802267], [17.138251, 59.8809074], [17.1412374, 59.8773384], [17.1397323, 59.8765146], [17.1449223, 59.8731078], [17.1470581, 59.8688629], [17.1698883, 59.8634981], [17.154972, 59.851505], [17.1562094, 59.845348], [17.1608752, 59.8450821], [17.1823047, 59.8304714], [17.1856285, 59.8317833], [17.1908915, 59.8310969], [17.1890185, 59.8266209], [17.1900583, 59.8254446], [17.1969521, 59.8270328], [17.2020219, 59.8321017], [17.2134705, 59.832935], [17.2273367, 59.8207618], [17.2333178, 59.8199561], [17.2341556, 59.8184104], [17.2319699, 59.8165967], [17.2422598, 59.8068462], [17.2815195, 59.7837901], [17.2900375, 59.788567], [17.3145912, 59.793329], [17.3398294, 59.7847524], [17.3501827, 59.785239], [17.3550094, 59.7828102], [17.362622, 59.7875835], [17.3676634, 59.7885639], [17.3673401, 59.7905059], [17.3706027, 59.7896587], [17.3702106, 59.7873392], [17.3725436, 59.7871908], [17.3714346, 59.7842948], [17.3747197, 59.7841938], [17.3756122, 59.7818352], [17.3848224, 59.7776465], [17.3831825, 59.7752598], [17.3853461, 59.7752739], [17.3890579, 59.7719618], [17.3931888, 59.7728389], [17.3893092, 59.7716161], [17.3925886, 59.7592096], [17.3955621, 59.7541989], [17.3952607, 59.7516951], [17.4080429, 59.7387794], [17.40951, 59.7321173], [17.431838, 59.7306589], [17.4385533, 59.7323833], [17.4809573, 59.7340334], [17.565207, 59.7340597], [17.6099054, 59.7447259], [17.6134131, 59.7613414], [17.6220643, 59.7730998], [17.6459399, 59.7814995], [17.653718, 59.7868339], [17.6604572, 59.7861669], [17.6647604, 59.7895995], [17.6673251, 59.7965368], [17.6704861, 59.7951725], [17.6756667, 59.7893861], [17.6747598, 59.7801463], [17.6722127, 59.7765816], [17.6861071, 59.7709855], [17.6940013, 59.7657302], [17.7278476, 59.7695209], [17.7351942, 59.7744927], [17.7568923, 59.7778459], [17.7608072, 59.7808977], [17.756475, 59.7854867], [17.7623114, 59.7813065], [17.7643853, 59.7818464], [17.7604058, 59.7863143], [17.762862, 59.7868262], [17.7709583, 59.8005222], [17.7775126, 59.8053526], [17.7839252, 59.8075256], [17.7925786, 59.8146091], [17.7935382, 59.8173828], [17.8043596, 59.8238871], [17.8429532, 59.8209559], [17.8621567, 59.815454], [17.8794518, 59.8138311], [17.9014574, 59.8185168], [17.9085232, 59.818513], [17.9077568, 59.8152951], [17.9117483, 59.81686], [17.9258092, 59.8168377], [17.9277159, 59.8142009], [17.9353207, 59.8119465], [17.9378509, 59.8143862], [17.9416758, 59.8145909], [17.9614016, 59.8072345], [17.9695818, 59.806472], [17.9809339, 59.8092626], [17.9938716, 59.8093805], [18.0066256, 59.8117855], [18.0247292, 59.8231932], [18.0267615, 59.8280576], [18.0526888, 59.8198633], [18.0575608, 59.8111948], [18.065374, 59.8093908], [18.0853872, 59.8119959], [18.0970033, 59.8114392], [18.1318106, 59.8202315], [18.1529661, 59.8225109], [18.1977009, 59.8315429], [18.2196763, 59.8281811], [18.2375191, 59.8333156], [18.2574236, 59.8351116], [18.2595768, 59.8359173], [18.2644582, 59.8459294], [18.2734129, 59.8505857], [18.3140756, 59.8566019], [18.3121403, 59.8585702], [18.3373054, 59.8634216], [18.353886, 59.8624568], [18.3647391, 59.8645135], [18.3631356, 59.8727279], [18.3858501, 59.8805882], [18.3902802, 59.8837185], [18.3926715, 59.8898419], [18.403213, 59.892875], [18.4045796, 59.8948764], [18.4038855, 59.8992301], [18.3980455, 59.9071225], [18.3976024, 59.9102206], [18.3943715, 59.9128988], [18.3937782, 59.9192311], [18.3872993, 59.9228036], [18.3780434, 59.9309667], [18.3771549, 59.9363976], [18.3821789, 59.9407413], [18.3838909, 59.9456754], [18.3887781, 59.9500291], [18.3902837, 59.9536151], [18.4033522, 59.9568753], [18.4233741, 59.9563258], [18.4292904, 59.9649947], [18.4272173, 59.9818564], [18.4475295, 59.9905755], [18.451245, 59.9942149], [18.4587706, 59.9949831], [18.4621626, 59.9936878], [18.4711692, 59.9994824], [18.4733583, 60.0042977], [18.4679157, 60.0071823], [18.4502211, 60.0113433], [18.4484674, 60.0157636], [18.4177461, 60.0253008], [18.40152, 60.0343024], [18.3949601, 60.0358917], [18.3884755, 60.0411046], [18.3968013, 60.0455017], [18.3957469, 60.0497773], [18.3898198, 60.0535499], [18.3887725, 60.0589944], [18.3755286, 60.0623839], [18.3636737, 60.0598164], [18.3635836, 60.0633577], [18.3618762, 60.0650134], [18.357108, 60.0636235], [18.3504277, 60.0658464], [18.3191391, 60.0613856], [18.3266238, 60.0541337], [18.3266243, 60.0513179], [18.3326648, 60.0438539], [18.3389065, 60.0384184], [18.31225, 60.0364936], [18.2970136, 60.0336798], [18.2632878, 60.0345477], [18.2488991, 60.0333795], [18.2328981, 60.0301079], [18.2363413, 60.026538], [18.2318408, 60.0231394], [18.2191347, 60.0252748], [18.2124555, 60.0239617], [18.2060214, 60.0247859], [18.1632035, 60.0341667], [18.137687, 60.0354789], [18.1265469, 60.0392775], [18.0663264, 60.0495677], [18.0491051, 60.043326], [18.066365, 60.0395373], [18.0665121, 60.037923], [18.0632933, 60.0363562], [18.0648422, 60.0354748], [18.0455828, 60.0318231], [18.0426437, 60.033681], [18.0382403, 60.0332868], [18.0359537, 60.0310909], [18.0388576, 60.0303358], [18.0373015, 60.0232831], [18.0236584, 60.0228118], [18.0175664, 60.0304421], [18.0040737, 60.0402223], [17.994823, 60.043219], [17.9906782, 60.047895], [17.9957877, 60.0513493], [17.9853898, 60.0585228], [17.9152596, 60.0632802], [17.9068915, 60.0592301], [17.8904068, 60.073254], [17.9036351, 60.0871832], [17.8989146, 60.0902433], [17.8980455, 60.0962643], [17.8947731, 60.0974096], [17.8960981, 60.105495], [17.895223, 60.1090815], [17.8984861, 60.1141023], [17.891478, 60.1150144], [17.8888894, 60.110569], [17.8847958, 60.1083706], [17.8893129, 60.1058125], [17.8880997, 60.1032768], [17.8447927, 60.1032996], [17.8454293, 60.1074299], [17.8485134, 60.1055416], [17.8524626, 60.105658], [17.8608134, 60.1090272], [17.8459151, 60.1115643], [17.8480673, 60.1258062], [17.8464203, 60.1271451], [17.8486694, 60.1273177], [17.8519812, 60.1359339], [17.841049, 60.1408226], [17.8239311, 60.1457269], [17.8035329, 60.1494923], [17.7942008, 60.1392783], [17.7817564, 60.1410826], [17.7858066, 60.1379583], [17.779016, 60.1366869], [17.7570382, 60.1258102], [17.7451375, 60.1279782], [17.7449774, 60.1318722], [17.7416977, 60.1346767], [17.7421375, 60.140424], [17.7395909, 60.140066], [17.736547, 60.1354036], [17.7312412, 60.1389494], [17.7121803, 60.1413419], [17.7158563, 60.1343902], [17.6387495, 60.1213387], [17.6387597, 60.1192166], [17.6185638, 60.1130072], [17.6161733, 60.113659], [17.6096863, 60.1100045], [17.612126, 60.1092995], [17.6110659, 60.1065387], [17.6164714, 60.1061724], [17.6266233, 60.0966876], [17.6214038, 60.094866], [17.6169946, 60.0966525], [17.6006641, 60.095501], [17.598711, 60.0969814], [17.5928322, 60.094176], [17.5908269, 60.091351], [17.5917833, 60.088745], [17.5825242, 60.0878429], [17.5771057, 60.0904859], [17.5733138, 60.0894515], [17.5684675, 60.0934226], [17.5671108, 60.0968375], [17.5620592, 60.1000532], [17.5595072, 60.0996843], [17.5603379, 60.095764], [17.5579598, 60.0962636], [17.5498252, 60.1089851], [17.5440732, 60.1140853], [17.5136406, 60.1344624], [17.4985463, 60.1500887], [17.4916322, 60.1702819], [17.4846999, 60.1760304], [17.4792762, 60.1862421], [17.4740652, 60.1837945], [17.473222, 60.1813714], [17.4748794, 60.1798485], [17.4729114, 60.1795911], [17.4713018, 60.1767607], [17.4653841, 60.1767212], [17.4660618, 60.1782008], [17.4637869, 60.1789024], [17.441282, 60.1684315], [17.4548141, 60.1658129], [17.44815, 60.164459], [17.445596, 60.1655066], [17.4452793, 60.1635414], [17.4415945, 60.1629437], [17.442807, 60.1627449], [17.4360077, 60.1546505], [17.4337096, 60.1537837], [17.4277919, 60.1567657], [17.4195931, 60.1576494], [17.4111774, 60.1546237], [17.4000231, 60.1451647], [17.4047582, 60.1424839], [17.3726152, 60.144796], [17.3716333, 60.1472947], [17.369735, 60.1464821], [17.3670812, 60.1481621], [17.3692559, 60.1498335], [17.3671394, 60.1519095], [17.3217552, 60.1335042], [17.3229467, 60.126309], [17.3142885, 60.1171772], [17.3160955, 60.1131385], [17.3085364, 60.1071131], [17.3031274, 60.1086227], [17.2977468, 60.1059921], [17.3086852, 60.0861001], [17.3075973, 60.0777565], [17.3027298, 60.0645402], [17.2944394, 60.0599161], [17.2793254, 60.0436938], [17.2522469, 60.0385814], [17.2067539, 60.0447976], [17.192794, 60.0334808], [17.1703115, 60.0199647], [17.1600109, 60.0066289], [17.1473798, 60.0007851], [17.1416421, 60.000164]], [[17.5500881, 60.092425], [17.5499202, 60.0930533], [17.5503111, 60.0947369], [17.5500881, 60.092425]], [[17.5500151, 60.0949259], [17.550136, 60.0982276], [17.550306, 60.0949182], [17.5500151, 60.0949259]]], [[[17.4326856, 60.1645073], [17.4345089, 60.164185], [17.4351801, 60.1653181], [17.4350342, 60.1655173], [17.4326856, 60.1645073]]], [[[17.4354428, 60.1640379], [17.4378375, 60.1636049], [17.4391269, 60.1643016], [17.4361191, 60.1651242], [17.4354428, 60.1640379]]], [[[17.439559, 60.1640578], [17.4393646, 60.1637439], [17.4397474, 60.1638419], [17.439559, 60.1640578]]], [[[17.4398683, 60.1632514], [17.4412586, 60.1630003], [17.4410279, 60.1634718], [17.4398683, 60.1632514]]], [[[17.7874033, 59.8057874], [17.7820557, 59.8032393], [17.7878037, 59.8053803], [17.7874033, 59.8057874]]], [[[17.8707364, 60.1084634], [17.8737687, 60.1061068], [17.8814214, 60.1078111], [17.8820711, 60.1091321], [17.8781311, 60.111723], [17.8707364, 60.1084634]]], [[[18.1061411, 59.8119476], [18.1078224, 59.8110946], [18.1076399, 59.81343], [18.1069707, 59.8133215], [18.1061411, 59.8119476]]], [[[18.1172745, 59.8139682], [18.119752, 59.8114478], [18.1235798, 59.8120575], [18.122877, 59.8141896], [18.1242251, 59.8164688], [18.1213165, 59.8169557], [18.1172745, 59.8139682]]]]}}